HULIANWANG DIGUI-92     
1 66000U 25231F   26196.92541043 -.00000093  00000+0  67705-4 0  9998
2 66000  50.0059  72.5839 0000533 343.3431  16.7423 13.29329023 36713
HULIANWANG DIGUI-93     
1 66001U 25231G   26196.90867079 -.00000099  00000+0  54867-4 0  9998
2 66001  50.0025  72.4314 0000520 338.3945  21.6905 13.29328066 36710
HULIANWANG DIGUI-94     
1 66002U 25231H   26197.06753901 -.00000096  00000+0  59989-4 0  9992
2 66002  50.0066  72.0192 0000546 341.6776  18.4076 13.29326046 36734
HULIANWANG DIGUI-95     
1 66003U 25231J   26197.05072009 -.00000098  00000+0  55314-4 0  9995
2 66003  50.0040  71.8746 0000517 345.7823  14.3034 13.29332497 36731
HULIANWANG DIGUI-96     
1 66412U 25258A   26197.29996502 -.00000124  00000+0 -59716-6 0  9990
2 66412  50.0022 191.2243 0000881 252.4898 107.5878 13.29327299 33602
HULIANWANG DIGUI-97     
1 66413U 25258B   26197.18297607 -.00000117  00000+0  14374-4 0  9999
2 66413  49.9985 191.8682 0001008 253.1733 106.9029 13.29326779 33589
HULIANWANG DIGUI-98     
1 66414U 25258C   26197.24994989 -.00000115  00000+0  19788-4 0  9996
2 66414  50.0022 191.6341 0001097 248.6625 111.4130 13.29323318 33593
HULIANWANG DIGUI-99     
1 66415U 25258D   26197.21646220 -.00000124  00000+0 -12042-6 0  9995
2 66415  50.0023 191.4529 0000988 255.2074 104.8688 13.29326530 33583
HULIANWANG DIGUI-100    
1 66416U 25258E   26197.16640758 -.00000121  00000+0  73129-5 0  9998
2 66416  50.0025 191.8649 0000988 260.1064  99.9697 13.29323333 33590
HULIANWANG DIGUI-101    
1 66417U 25258F   26197.23304889 -.00000124  00000+0 -34341-6 0  9997
2 66417  49.9974 191.4429 0000831 255.5436 104.5343 13.29327204 33605
HULIANWANG DIGUI-102    
1 66418U 25258G   26197.28330748 -.00000117  00000+0  15297-4 0  9994
2 66418  49.9989 191.0681 0000871 253.3304 106.7472 13.29323219 33601
HULIANWANG DIGUI-103    
1 66419U 25258H   26197.19964511 -.00000114  00000+0  20816-4 0  9996
2 66419  49.9982 191.2790 0000969 264.3520  95.7241 13.29326303 33594
HULIANWANG DIGUI-104    
1 66420U 25258J   26197.26651329 -.00000119  00000+0  11068-4 0  9990
2 66420  50.0000 191.0057 0000935 252.6251 107.4519 13.29326339 33596
HULIANWANG DIGUI-105    
1 66915U 25285A   26196.89469610 -.00000116  00000+0  16369-4 0  9993
2 66915  50.0058  43.2630 0000961  36.9613 323.1326 13.29322637 29873
HULIANWANG DIGUI-106    
1 66916U 25285B   26196.96147713 -.00000104  00000+0  43799-4 0  9993
2 66916  50.0070  42.9702 0000988  35.4727 324.6211 13.29323079 29884
HULIANWANG DIGUI-107    
1 66917U 25285C   26196.95298508 -.00000107  00000+0  37547-4 0  9999
2 66917  50.0035  42.8640 0000974  40.1176 319.9768 13.29325968 29885
