{"fetched_at":"2026-07-16T17:46:34.847Z","source":"https://celestrak.org/NORAD/elements/gp.php?NAME=HULIANWANG&FORMAT=JSON","constellation":"guowang","records":[{"OBJECT_NAME":"HULIANWANG DIGUI-92","OBJECT_ID":"2025-231F","EPOCH":"2026-07-15T22:12:35.461152","CLASSIFICATION_TYPE":"U","MEAN_MOTION":13.29329023,"ECCENTRICITY":0.0000533,"INCLINATION":50.0059,"RA_OF_ASC_NODE":72.5839,"ARG_OF_PERICENTER":343.3431,"MEAN_ANOMALY":16.7423,"EPHEMERIS_TYPE":0,"NORAD_CAT_ID":66000,"ELEMENT_SET_NO":999,"REV_AT_EPOCH":3671,"BSTAR":0.000067705,"MEAN_MOTION_DOT":-9.3e-7,"MEAN_MOTION_DDOT":0},{"OBJECT_NAME":"HULIANWANG DIGUI-93","OBJECT_ID":"2025-231G","EPOCH":"2026-07-15T21:48:29.156256","CLASSIFICATION_TYPE":"U","MEAN_MOTION":13.29328066,"ECCENTRICITY":0.000052,"INCLINATION":50.0025,"RA_OF_ASC_NODE":72.4314,"ARG_OF_PERICENTER":338.3945,"MEAN_ANOMALY":21.6905,"EPHEMERIS_TYPE":0,"NORAD_CAT_ID":66001,"ELEMENT_SET_NO":999,"REV_AT_EPOCH":3671,"BSTAR":0.000054867,"MEAN_MOTION_DOT":-9.9e-7,"MEAN_MOTION_DDOT":0},{"OBJECT_NAME":"HULIANWANG DIGUI-94","OBJECT_ID":"2025-231H","EPOCH":"2026-07-16T01:37:15.370464","CLASSIFICATION_TYPE":"U","MEAN_MOTION":13.29326046,"ECCENTRICITY":0.00005462,"INCLINATION":50.0066,"RA_OF_ASC_NODE":72.0192,"ARG_OF_PERICENTER":341.6776,"MEAN_ANOMALY":18.4076,"EPHEMERIS_TYPE":0,"NORAD_CAT_ID":66002,"ELEMENT_SET_NO":999,"REV_AT_EPOCH":3673,"BSTAR":0.000059989454,"MEAN_MOTION_DOT":-9.6e-7,"MEAN_MOTION_DDOT":0},{"OBJECT_NAME":"HULIANWANG DIGUI-95","OBJECT_ID":"2025-231J","EPOCH":"2026-07-16T01:13:02.215776","CLASSIFICATION_TYPE":"U","MEAN_MOTION":13.29332497,"ECCENTRICITY":0.00005174,"INCLINATION":50.004,"RA_OF_ASC_NODE":71.8746,"ARG_OF_PERICENTER":345.7823,"MEAN_ANOMALY":14.3034,"EPHEMERIS_TYPE":0,"NORAD_CAT_ID":66003,"ELEMENT_SET_NO":999,"REV_AT_EPOCH":3673,"BSTAR":0.000055313777,"MEAN_MOTION_DOT":-9.8e-7,"MEAN_MOTION_DDOT":0},{"OBJECT_NAME":"HULIANWANG DIGUI-96","OBJECT_ID":"2025-258A","EPOCH":"2026-07-16T07:11:56.977728","CLASSIFICATION_TYPE":"U","MEAN_MOTION":13.29327299,"ECCENTRICITY":0.00008817,"INCLINATION":50.0022,"RA_OF_ASC_NODE":191.2243,"ARG_OF_PERICENTER":252.4898,"MEAN_ANOMALY":107.5878,"EPHEMERIS_TYPE":0,"NORAD_CAT_ID":66412,"ELEMENT_SET_NO":999,"REV_AT_EPOCH":3360,"BSTAR":-5.97161e-7,"MEAN_MOTION_DOT":-0.00000124,"MEAN_MOTION_DDOT":0},{"OBJECT_NAME":"HULIANWANG DIGUI-97","OBJECT_ID":"2025-258B","EPOCH":"2026-07-16T04:23:29.132448","CLASSIFICATION_TYPE":"U","MEAN_MOTION":13.29326779,"ECCENTRICITY":0.00010088,"INCLINATION":49.9985,"RA_OF_ASC_NODE":191.8682,"ARG_OF_PERICENTER":253.1733,"MEAN_ANOMALY":106.9029,"EPHEMERIS_TYPE":0,"NORAD_CAT_ID":66413,"ELEMENT_SET_NO":999,"REV_AT_EPOCH":3358,"BSTAR":0.000014373601,"MEAN_MOTION_DOT":-0.00000117,"MEAN_MOTION_DDOT":0},{"OBJECT_NAME":"HULIANWANG DIGUI-98","OBJECT_ID":"2025-258C","EPOCH":"2026-07-16T05:59:55.670496","CLASSIFICATION_TYPE":"U","MEAN_MOTION":13.29323318,"ECCENTRICITY":0.00010976,"INCLINATION":50.0022,"RA_OF_ASC_NODE":191.6341,"ARG_OF_PERICENTER":248.6625,"MEAN_ANOMALY":111.413,"EPHEMERIS_TYPE":0,"NORAD_CAT_ID":66414,"ELEMENT_SET_NO":999,"REV_AT_EPOCH":3359,"BSTAR":0.000019788084,"MEAN_MOTION_DOT":-0.00000115,"MEAN_MOTION_DDOT":0},{"OBJECT_NAME":"HULIANWANG DIGUI-99","OBJECT_ID":"2025-258D","EPOCH":"2026-07-16T05:11:42.334080","CLASSIFICATION_TYPE":"U","MEAN_MOTION":13.2932653,"ECCENTRICITY":0.0000988,"INCLINATION":50.0023,"RA_OF_ASC_NODE":191.4529,"ARG_OF_PERICENTER":255.2074,"MEAN_ANOMALY":104.8688,"EPHEMERIS_TYPE":0,"NORAD_CAT_ID":66415,"ELEMENT_SET_NO":999,"REV_AT_EPOCH":3358,"BSTAR":-1.20415e-7,"MEAN_MOTION_DOT":-0.00000124,"MEAN_MOTION_DDOT":0},{"OBJECT_NAME":"HULIANWANG DIGUI-100","OBJECT_ID":"2025-258E","EPOCH":"2026-07-16T03:59:37.614912","CLASSIFICATION_TYPE":"U","MEAN_MOTION":13.29323333,"ECCENTRICITY":0.00009882,"INCLINATION":50.0025,"RA_OF_ASC_NODE":191.8649,"ARG_OF_PERICENTER":260.1064,"MEAN_ANOMALY":99.9697,"EPHEMERIS_TYPE":0,"NORAD_CAT_ID":66416,"ELEMENT_SET_NO":999,"REV_AT_EPOCH":3359,"BSTAR":0.000007312904,"MEAN_MOTION_DOT":-0.00000121,"MEAN_MOTION_DDOT":0},{"OBJECT_NAME":"HULIANWANG DIGUI-101","OBJECT_ID":"2025-258F","EPOCH":"2026-07-16T05:35:35.424096","CLASSIFICATION_TYPE":"U","MEAN_MOTION":13.29327204,"ECCENTRICITY":0.00008319,"INCLINATION":49.9974,"RA_OF_ASC_NODE":191.4429,"ARG_OF_PERICENTER":255.5436,"MEAN_ANOMALY":104.5343,"EPHEMERIS_TYPE":0,"NORAD_CAT_ID":66417,"ELEMENT_SET_NO":999,"REV_AT_EPOCH":3360,"BSTAR":-3.43413e-7,"MEAN_MOTION_DOT":-0.00000124,"MEAN_MOTION_DDOT":0},{"OBJECT_NAME":"HULIANWANG DIGUI-102","OBJECT_ID":"2025-258G","EPOCH":"2026-07-16T06:47:57.766272","CLASSIFICATION_TYPE":"U","MEAN_MOTION":13.29323219,"ECCENTRICITY":0.00008718,"INCLINATION":49.9989,"RA_OF_ASC_NODE":191.0681,"ARG_OF_PERICENTER":253.3304,"MEAN_ANOMALY":106.7472,"EPHEMERIS_TYPE":0,"NORAD_CAT_ID":66418,"ELEMENT_SET_NO":999,"REV_AT_EPOCH":3360,"BSTAR":0.000015297379,"MEAN_MOTION_DOT":-0.00000117,"MEAN_MOTION_DDOT":0},{"OBJECT_NAME":"HULIANWANG DIGUI-103","OBJECT_ID":"2025-258H","EPOCH":"2026-07-16T04:47:29.337504","CLASSIFICATION_TYPE":"U","MEAN_MOTION":13.29326303,"ECCENTRICITY":0.00009699,"INCLINATION":49.9982,"RA_OF_ASC_NODE":191.279,"ARG_OF_PERICENTER":264.352,"MEAN_ANOMALY":95.7241,"EPHEMERIS_TYPE":0,"NORAD_CAT_ID":66419,"ELEMENT_SET_NO":999,"REV_AT_EPOCH":3359,"BSTAR":0.000020815748,"MEAN_MOTION_DOT":-0.00000114,"MEAN_MOTION_DDOT":0},{"OBJECT_NAME":"HULIANWANG DIGUI-104","OBJECT_ID":"2025-258J","EPOCH":"2026-07-16T06:23:46.748256","CLASSIFICATION_TYPE":"U","MEAN_MOTION":13.29326339,"ECCENTRICITY":0.00009355,"INCLINATION":50,"RA_OF_ASC_NODE":191.0057,"ARG_OF_PERICENTER":252.6251,"MEAN_ANOMALY":107.4519,"EPHEMERIS_TYPE":0,"NORAD_CAT_ID":66420,"ELEMENT_SET_NO":999,"REV_AT_EPOCH":3359,"BSTAR":0.000011067917,"MEAN_MOTION_DOT":-0.00000119,"MEAN_MOTION_DDOT":0},{"OBJECT_NAME":"HULIANWANG DIGUI-105","OBJECT_ID":"2025-285A","EPOCH":"2026-07-15T21:28:21.743040","CLASSIFICATION_TYPE":"U","MEAN_MOTION":13.29322637,"ECCENTRICITY":0.0000961,"INCLINATION":50.0058,"RA_OF_ASC_NODE":43.263,"ARG_OF_PERICENTER":36.9613,"MEAN_ANOMALY":323.1326,"EPHEMERIS_TYPE":0,"NORAD_CAT_ID":66915,"ELEMENT_SET_NO":999,"REV_AT_EPOCH":2987,"BSTAR":0.000016369,"MEAN_MOTION_DOT":-0.00000116,"MEAN_MOTION_DDOT":0},{"OBJECT_NAME":"HULIANWANG DIGUI-106","OBJECT_ID":"2025-285B","EPOCH":"2026-07-15T23:04:31.624032","CLASSIFICATION_TYPE":"U","MEAN_MOTION":13.29323079,"ECCENTRICITY":0.00009882,"INCLINATION":50.007,"RA_OF_ASC_NODE":42.9702,"ARG_OF_PERICENTER":35.4727,"MEAN_ANOMALY":324.6211,"EPHEMERIS_TYPE":0,"NORAD_CAT_ID":66916,"ELEMENT_SET_NO":999,"REV_AT_EPOCH":2988,"BSTAR":0.000043798891,"MEAN_MOTION_DOT":-0.00000104,"MEAN_MOTION_DDOT":0},{"OBJECT_NAME":"HULIANWANG DIGUI-107","OBJECT_ID":"2025-285C","EPOCH":"2026-07-15T22:52:17.910912","CLASSIFICATION_TYPE":"U","MEAN_MOTION":13.29325968,"ECCENTRICITY":0.00009743,"INCLINATION":50.0035,"RA_OF_ASC_NODE":42.864,"ARG_OF_PERICENTER":40.1176,"MEAN_ANOMALY":319.9768,"EPHEMERIS_TYPE":0,"NORAD_CAT_ID":66917,"ELEMENT_SET_NO":999,"REV_AT_EPOCH":2988,"BSTAR":0.000037546937,"MEAN_MOTION_DOT":-0.00000107,"MEAN_MOTION_DDOT":0}]}
